NORAD_CAT_ID,OBJECT_NAME,OBJECT_TYPE,EPOCH,MEAN_MOTION,ECCENTRICITY,INCLINATION,RA_OF_ASC_NODE,ARG_OF_PERICENTER,MEAN_ANOMALY,BSTAR,MEAN_MOTION_DOT,MEAN_MOTION_DDOT,TLE_LINE0,TLE_LINE1,TLE_LINE2,SEMIMAJOR_AXIS,PERIOD,APOGEE,PERIGEE,DECAYED
54080.0,STARLINK-5160,PAYLOAD,2023-09-22 16:35:51,15.08845168,0.0001386,53.218,55.0434,84.4492,275.6658,0.00023813,3.504e-05,0.0,0 STARLINK-5160,1 54080U 22136AF  23265.69157302  .00003504  00000-0  23813-3 0  9994,2 54080  53.2180  55.0434 0001386  84.4492 275.6658 15.08845168 51672,6917.865,95.437,540.688,538.771,0.0
54080.0,STARLINK-5160,PAYLOAD,2023-09-22 19:46:38,15.08846498,0.0001313,53.2181,54.4477,84.5715,275.5427,0.00023294,3.422e-05,0.0,0 STARLINK-5160,1 54080U 22136AF  23265.82405188  .00003422  00000-0  23294-3 0  9999,2 54080  53.2181  54.4477 0001313  84.5715 275.5427 15.08846498 51212,6917.861,95.437,540.634,538.817,0.0
54080.0,STARLINK-5160,PAYLOAD,2023-09-23 10:05:06,15.08840614,0.0001586,53.2173,51.7735,75.7528,284.364,5.0447e-05,5.15e-06,0.0,0 STARLINK-5160,1 54080U 22136AF  23266.42021646  .00000515  00000-0  50447-4 0  9990,2 54080  53.2173  51.7735 0001586  75.7528 284.3640 15.08840614 51787,6917.879,95.438,540.841,538.646,0.0
54080.0,STARLINK-5160,PAYLOAD,2023-09-23 13:15:52,15.08842254,0.0001413,53.2167,51.1789,84.9333,275.182,6.6016e-05,7.63e-06,0.0,0 STARLINK-5160,1 54080U 22136AF  23266.55269544  .00000763  00000-0  66016-4 0  9999,2 54080  53.2167  51.1789 0001413  84.9333 275.1820 15.08842254 51328,6917.873,95.437,540.716,538.761,0.0
54080.0,STARLINK-5160,PAYLOAD,2023-09-23 19:37:25,15.08847737,0.000142,53.2168,49.9887,87.7154,272.4,0.00015134,2.122e-05,0.0,0 STARLINK-5160,1 54080U 22136AF  23266.81765175  .00002122  00000-0  15134-3 0  9994,2 54080  53.2168  49.9887 0001420  87.7154 272.4000 15.08847737 51841,6917.857,95.437,540.704,538.739,0.0
54080.0,STARLINK-5160,PAYLOAD,2023-09-24 09:55:53,15.08838269,0.0001356,53.217,47.312,87.6924,272.4224,-2.1527e-06,-3.22e-06,0.0,0 STARLINK-5160,1 54080U 22136AF  23267.41381630 -.00000322  00000-0 -21527-5 0  9998,2 54080  53.2170  47.3120 0001356  87.6924 272.4224 15.08838269 51936,6917.886,95.438,540.689,538.813,0.0
54080.0,STARLINK-5160,PAYLOAD,2023-09-24 13:06:39,15.08839864,0.0001349,53.217,46.7175,87.5848,272.5299,1.2335e-05,-9.2e-07,0.0,0 STARLINK-5160,1 54080U 22136AF  23267.54629538 -.00000092  00000-0  12335-4 0  9993,2 54080  53.2170  46.7175 0001349  87.5848 272.5299 15.08839864 51479,6917.881,95.438,540.679,538.813,0.0
54080.0,STARLINK-5160,PAYLOAD,2023-09-24 14:42:03,15.08840699,0.0001313,53.2179,46.4212,86.998,273.1162,2.5223e-05,1.14e-06,0.0,0 STARLINK-5160,1 54080U 22136AF  23267.61253509  .00000114  00000-0  25223-4 0  9996,2 54080  53.2179  46.4212 0001313  86.9980 273.1162 15.08840699 51483,6917.878,95.438,540.652,538.835,0.0
54080.0,STARLINK-5160,PAYLOAD,2023-09-25 12:57:26,15.08843834,0.0001568,53.2195,42.2591,102.052,258.0648,0.00013443,1.852e-05,0.0,0 STARLINK-5160,1 54080U 22136AF  23268.53989379  .00001852  00000-0  13443-3 0  9999,2 54080  53.2195  42.2591 0001568 102.0520 258.0648 15.08843834 51628,6917.869,95.437,540.818,538.649,0.0
54080.0,STARLINK-5160,PAYLOAD,2023-09-25 16:08:12,15.08849362,0.000134,53.2189,41.6666,86.3031,273.8114,0.0002317,3.402e-05,0.0,0 STARLINK-5160,1 54080U 22136AF  23268.67237124  .00003402  00000-0  23170-3 0  9999,2 54080  53.2189  41.6666 0001340  86.3031 273.8114 15.08849362 52127,6917.852,95.437,540.644,538.79,0.0
54080.0,STARLINK-5160,PAYLOAD,2023-09-26 09:37:28,15.08832789,0.0001545,53.2196,38.3943,88.7062,271.4107,-3.793e-05,-8.91e-06,0.0,0 STARLINK-5160,1 54080U 22136AF  23269.40102079 -.00000891  00000-0 -37930-4 0  9992,2 54080  53.2196  38.3943 0001545  88.7062 271.4107 15.08832789 52236,6917.902,95.438,540.836,538.699,0.0
54080.0,STARLINK-5160,PAYLOAD,2023-09-26 14:23:37,15.08837007,0.00016,53.2199,37.5023,95.313,264.8045,5.6907e-05,6.18e-06,0.0,0 STARLINK-5160,1 54080U 22136AF  23269.59973994  .00000618  00000-0  56907-4 0  9994,2 54080  53.2199  37.5023 0001600  95.3130 264.8045 15.08837007 51785,6917.89,95.438,540.861,538.648,0.0
54080.0,STARLINK-5160,PAYLOAD,2023-09-26 17:34:23,15.08842666,0.0001587,53.2194,36.9075,89.9207,270.1967,0.00018315,2.628e-05,0.0,0 STARLINK-5160,1 54080U 22136AF  23269.73221875  .00002628  00000-0  18315-3 0  9997,2 54080  53.2194  36.9075 0001587  89.9207 270.1967 15.08842666 51801,6917.872,95.437,540.835,538.639,0.0
54080.0,STARLINK-5160,PAYLOAD,2023-09-27 12:39:01,15.08841503,0.0001603,53.2196,33.3393,95.672,264.4455,0.0002039,2.959e-05,0.0,0 STARLINK-5160,1 54080U 22136AF  23270.52710041  .00002959  00000-0  20390-3 0  9997,2 54080  53.2196  33.3393 0001603  95.6720 264.4455 15.08841503 51920,6917.876,95.437,540.85,538.632,0.0
54080.0,STARLINK-5160,PAYLOAD,2023-09-28 12:29:48,15.08842056,0.0001628,53.2184,28.8794,74.6208,285.4964,0.0001445,2.013e-05,0.0,0 STARLINK-5160,1 54080U 22136AF  23271.52070157  .00002013  00000-0  14450-3 0  9996,2 54080  53.2184  28.8794 0001628  74.6208 285.4964 15.08842056 52558,6917.874,95.437,540.865,538.613,0.0
54080.0,STARLINK-5160,PAYLOAD,2023-09-28 14:05:11,15.08842321,0.0001585,53.2186,28.5823,74.1819,285.9348,0.00013405,1.846e-05,0.0,0 STARLINK-5160,1 54080U 22136AF  23271.58694161  .00001846  00000-0  13405-3 0  9991,2 54080  53.2186  28.5823 0001585  74.1819 285.9348 15.08842321 52089,6917.873,95.437,540.835,538.642,0.0
54080.0,STARLINK-5160,PAYLOAD,2023-09-28 15:40:34,15.08845558,0.000146,53.2188,28.2839,79.5881,280.5275,0.00021622,3.155e-05,0.0,0 STARLINK-5160,1 54080U 22136AF  23271.65317876  .00003155  00000-0  21622-3 0  9999,2 54080  53.2188  28.2839 0001460  79.5881 280.5275 15.08845558 52091,6917.863,95.437,540.738,538.718,0.0
54080.0,STARLINK-5160,PAYLOAD,2023-09-29 13:55:58,15.08846414,0.0001599,53.2195,24.1228,72.1681,287.9485,6.6776e-05,7.75e-06,0.0,0 STARLINK-5160,1 54080U 22136AF  23272.58053999  .00000775  00000-0  66776-4 0  9990,2 54080  53.2195  24.1228 0001599  72.1681 287.9485 15.08846414 52238,6917.861,95.437,540.832,538.62,0.0
54080.0,STARLINK-5160,PAYLOAD,2023-09-29 18:42:07,15.08858771,0.000143,53.2186,23.2265,88.3594,271.7562,0.00024946,3.686e-05,0.0,0 STARLINK-5160,1 54080U 22136AF  23272.77925172  .00003686  00000-0  24946-3 0  9998,2 54080  53.2186  23.2265 0001430  88.3594 271.7562 15.08858771 52747,6917.823,95.436,540.677,538.699,0.0
54080.0,STARLINK-5160,PAYLOAD,2023-09-30 10:35:59,15.08841641,0.0001473,53.2192,20.2567,72.2906,287.8247,7.8535e-05,9.62e-06,0.0,0 STARLINK-5160,1 54080U 22136AF  23273.44166117  .00000962  00000-0  78535-4 0  9997,2 54080  53.2192  20.2567 0001473  72.2906 287.8247 15.08841641 52849,6917.875,95.437,540.759,538.721,0.0
54080.0,STARLINK-5160,PAYLOAD,2023-09-30 16:57:31,15.08854029,0.0001547,53.2184,19.0626,97.319,262.7978,0.00042721,6.52e-05,0.0,0 STARLINK-5160,1 54080U 22136AF  23273.70661528  .00006520  00000-0  42721-3 0  9995,2 54080  53.2184  19.0626 0001547  97.3190 262.7978 15.08854029 52888,6917.838,95.437,540.773,538.632,0.0
54080.0,STARLINK-5160,PAYLOAD,2023-10-01 10:26:46,15.08848464,0.0001647,53.2186,15.7898,100.0252,260.0926,0.0001966,2.843e-05,0.0,0 STARLINK-5160,1 54080U 22136AF  23274.43525539  .00002843  00000-0  19660-3 0  9997,2 54080  53.2186  15.7898 0001647 100.0252 260.0926 15.08848464 52998,6917.855,95.437,540.859,538.58,0.0
54080.0,STARLINK-5160,PAYLOAD,2023-10-01 13:37:31,15.08857291,0.0001541,53.2191,15.1958,99.6228,260.4939,0.00030092,4.507e-05,0.0,0 STARLINK-5160,1 54080U 22136AF  23274.56773030  .00004507  00000-0  30092-3 0  9993,2 54080  53.2191  15.1958 0001541  99.6228 260.4939 15.08857291 52530,6917.828,95.436,540.759,538.627,0.0
54080.0,STARLINK-5160,PAYLOAD,2023-10-01 16:48:18,15.08859284,0.0001521,53.2193,14.601,97.8829,262.2335,0.0004468,6.834e-05,0.0,0 STARLINK-5160,1 54080U 22136AF  23274.70020975  .00006834  00000-0  44680-3 0  9995,2 54080  53.2193  14.6010 0001521  97.8829 262.2335 15.08859284 53030,6917.821,95.436,540.739,538.634,0.0
54080.0,STARLINK-5160,PAYLOAD,2023-10-02 13:28:19,15.08841826,0.000127,53.2183,10.7372,76.6498,283.4636,0.00091824,0.00014357,0.0,0 STARLINK-5160,1 54080U 22136AF  23275.56133953  .00014357  00000-0  91824-3 0  9992,2 54080  53.2183  10.7372 0001270  76.6498 283.4636 15.08841826 53161,6917.875,95.437,540.618,538.861,0.0
54080.0,STARLINK-5160,PAYLOAD,2023-10-03 05:22:11,15.08845138,0.0001604,53.2181,7.7694,88.0165,272.1011,0.00049499,7.6e-05,0.0,0 STARLINK-5160,1 54080U 22136AF  23276.22374209  .00007600  00000-0  49499-3 0  9991,2 54080  53.2181   7.7694 0001604  88.0165 272.1011 15.08845138 53264,6917.865,95.437,540.839,538.62,0.0
54080.0,STARLINK-5160,PAYLOAD,2023-10-03 13:19:06,15.08848148,0.0001551,53.2181,6.28,95.1965,264.9204,0.0002423,3.571e-05,0.0,0 STARLINK-5160,1 54080U 22136AF  23276.55493783  .00003571  00000-0  24230-3 0  9995,2 54080  53.2181   6.2800 0001551  95.1965 264.9204 15.08848148 52834,6917.855,95.437,540.793,538.648,0.0
54080.0,STARLINK-5160,PAYLOAD,2023-10-04 09:59:08,15.08837929,0.0001529,53.2173,2.4142,89.5084,270.6083,0.00021203,3.088e-05,0.0,0 STARLINK-5160,1 54080U 22136AF  23277.41606607  .00003088  00000-0  21203-3 0  9992,2 54080  53.2173   2.4142 0001529  89.5084 270.6083 15.08837929 53448,6917.887,95.438,540.809,538.694,0.0
54080.0,STARLINK-5160,PAYLOAD,2023-10-04 13:09:53,15.08847538,0.0001467,53.2175,1.819,92.013,268.103,0.00033907,5.114e-05,0.0,0 STARLINK-5160,1 54080U 22136AF  23277.54854155  .00005114  00000-0  33907-3 0  9995,2 54080  53.2175   1.8190 0001467  92.0130 268.1030 15.08847538 52987,6917.857,95.437,540.737,538.707,0.0
54080.0,STARLINK-5160,PAYLOAD,2023-10-05 09:49:55,15.08837478,0.0001729,53.2179,357.954,82.3765,277.7424,4.0641e-05,3.59e-06,0.0,0 STARLINK-5160,1 54080U 22136AF  23278.40966595  .00000359  00000-0  40641-4 0  9993,2 54080  53.2179 357.9540 0001729  82.3765 277.7424 15.08837478 53595,6917.888,95.438,540.949,538.557,0.0
